<?xml version="1.0" encoding="UTF-8"?>
<ndm xmlns:xsi="http://www.w3.org/2001/XMLSchema-instance" xsi:noNamespaceSchemaLocation="https://sanaregistry.org/r/ndmxml_unqualified/ndmxml-2.0.0-master-2.0.xsd">
<omm id="CCSDS_OMM_VERS" version="2.0">
<header><CREATION_DATE/><ORIGINATOR/></header><body><segment><metadata><OBJECT_NAME>KUIPER-00016</OBJECT_NAME><OBJECT_ID>2025-088J</OBJECT_ID><CENTER_NAME>EARTH</CENTER_NAME><REF_FRAME>TEME</REF_FRAME><TIME_SYSTEM>UTC</TIME_SYSTEM><MEAN_ELEMENT_THEORY>SGP4</MEAN_ELEMENT_THEORY></metadata><data><meanElements><EPOCH>2025-07-31T22:00:01.999584</EPOCH><MEAN_MOTION>15.07639202</MEAN_MOTION><ECCENTRICITY>.0010333</ECCENTRICITY><INCLINATION>51.8868</INCLINATION><RA_OF_ASC_NODE>9.8717</RA_OF_ASC_NODE><ARG_OF_PERICENTER>63.9972</ARG_OF_PERICENTER><MEAN_ANOMALY>157.8965</MEAN_ANOMALY></meanElements><tleParameters><EPHEMERIS_TYPE>0</EPHEMERIS_TYPE><CLASSIFICATION_TYPE>U</CLASSIFICATION_TYPE><NORAD_CAT_ID>63732</NORAD_CAT_ID><ELEMENT_SET_NO>999</ELEMENT_SET_NO><REV_AT_EPOCH>1460</REV_AT_EPOCH><BSTAR>-.68892E-1</BSTAR><MEAN_MOTION_DOT>-.979192E-2</MEAN_MOTION_DOT><MEAN_MOTION_DDOT>0</MEAN_MOTION_DDOT></tleParameters></data></segment></body></omm>
<omm id="CCSDS_OMM_VERS" version="2.0">
<header><CREATION_DATE/><ORIGINATOR/></header><body><segment><metadata><OBJECT_NAME>KUIPER-00018</OBJECT_NAME><OBJECT_ID>2025-088K</OBJECT_ID><CENTER_NAME>EARTH</CENTER_NAME><REF_FRAME>TEME</REF_FRAME><TIME_SYSTEM>UTC</TIME_SYSTEM><MEAN_ELEMENT_THEORY>SGP4</MEAN_ELEMENT_THEORY></metadata><data><meanElements><EPOCH>2025-07-31T22:00:01.999584</EPOCH><MEAN_MOTION>15.25309954</MEAN_MOTION><ECCENTRICITY>.0007332</ECCENTRICITY><INCLINATION>51.8759</INCLINATION><RA_OF_ASC_NODE>4.8427</RA_OF_ASC_NODE><ARG_OF_PERICENTER>79.7627</ARG_OF_PERICENTER><MEAN_ANOMALY>164.3880</MEAN_ANOMALY></meanElements><tleParameters><EPHEMERIS_TYPE>0</EPHEMERIS_TYPE><CLASSIFICATION_TYPE>U</CLASSIFICATION_TYPE><NORAD_CAT_ID>63733</NORAD_CAT_ID><ELEMENT_SET_NO>999</ELEMENT_SET_NO><REV_AT_EPOCH>1467</REV_AT_EPOCH><BSTAR>-.5521E-1</BSTAR><MEAN_MOTION_DOT>-.1290587E-1</MEAN_MOTION_DOT><MEAN_MOTION_DDOT>0</MEAN_MOTION_DDOT></tleParameters></data></segment></body></omm>
<omm id="CCSDS_OMM_VERS" version="2.0">
<header><CREATION_DATE/><ORIGINATOR/></header><body><segment><metadata><OBJECT_NAME>KUIPER-00019</OBJECT_NAME><OBJECT_ID>2025-088L</OBJECT_ID><CENTER_NAME>EARTH</CENTER_NAME><REF_FRAME>TEME</REF_FRAME><TIME_SYSTEM>UTC</TIME_SYSTEM><MEAN_ELEMENT_THEORY>SGP4</MEAN_ELEMENT_THEORY></metadata><data><meanElements><EPOCH>2025-07-31T22:00:01.999584</EPOCH><MEAN_MOTION>15.34261309</MEAN_MOTION><ECCENTRICITY>.0004764</ECCENTRICITY><INCLINATION>51.8717</INCLINATION><RA_OF_ASC_NODE>4.2474</RA_OF_ASC_NODE><ARG_OF_PERICENTER>90.9752</ARG_OF_PERICENTER><MEAN_ANOMALY>67.8878</MEAN_ANOMALY></meanElements><tleParameters><EPHEMERIS_TYPE>0</EPHEMERIS_TYPE><CLASSIFICATION_TYPE>U</CLASSIFICATION_TYPE><NORAD_CAT_ID>63734</NORAD_CAT_ID><ELEMENT_SET_NO>999</ELEMENT_SET_NO><REV_AT_EPOCH>1468</REV_AT_EPOCH><BSTAR>-.23235E-1</BSTAR><MEAN_MOTION_DOT>-.72262E-2</MEAN_MOTION_DOT><MEAN_MOTION_DDOT>0</MEAN_MOTION_DDOT></tleParameters></data></segment></body></omm>
<omm id="CCSDS_OMM_VERS" version="2.0">
<header><CREATION_DATE/><ORIGINATOR/></header><body><segment><metadata><OBJECT_NAME>KUIPER-00020</OBJECT_NAME><OBJECT_ID>2025-088M</OBJECT_ID><CENTER_NAME>EARTH</CENTER_NAME><REF_FRAME>TEME</REF_FRAME><TIME_SYSTEM>UTC</TIME_SYSTEM><MEAN_ELEMENT_THEORY>SGP4</MEAN_ELEMENT_THEORY></metadata><data><meanElements><EPOCH>2025-07-31T22:00:01.999584</EPOCH><MEAN_MOTION>15.20773903</MEAN_MOTION><ECCENTRICITY>.0007562</ECCENTRICITY><INCLINATION>51.8810</INCLINATION><RA_OF_ASC_NODE>5.6642</RA_OF_ASC_NODE><ARG_OF_PERICENTER>68.9184</ARG_OF_PERICENTER><MEAN_ANOMALY>94.3077</MEAN_ANOMALY></meanElements><tleParameters><EPHEMERIS_TYPE>0</EPHEMERIS_TYPE><CLASSIFICATION_TYPE>U</CLASSIFICATION_TYPE><NORAD_CAT_ID>63735</NORAD_CAT_ID><ELEMENT_SET_NO>999</ELEMENT_SET_NO><REV_AT_EPOCH>1487</REV_AT_EPOCH><BSTAR>-.60093E-1</BSTAR><MEAN_MOTION_DOT>-.1231986E-1</MEAN_MOTION_DOT><MEAN_MOTION_DDOT>0</MEAN_MOTION_DDOT></tleParameters></data></segment></body></omm>
<omm id="CCSDS_OMM_VERS" version="2.0">
<header><CREATION_DATE/><ORIGINATOR/></header><body><segment><metadata><OBJECT_NAME>KUIPER-00021</OBJECT_NAME><OBJECT_ID>2025-088N</OBJECT_ID><CENTER_NAME>EARTH</CENTER_NAME><REF_FRAME>TEME</REF_FRAME><TIME_SYSTEM>UTC</TIME_SYSTEM><MEAN_ELEMENT_THEORY>SGP4</MEAN_ELEMENT_THEORY></metadata><data><meanElements><EPOCH>2025-07-31T22:00:01.999584</EPOCH><MEAN_MOTION>15.18853092</MEAN_MOTION><ECCENTRICITY>.0005994</ECCENTRICITY><INCLINATION>51.8728</INCLINATION><RA_OF_ASC_NODE>6.2231</RA_OF_ASC_NODE><ARG_OF_PERICENTER>83.2340</ARG_OF_PERICENTER><MEAN_ANOMALY>202.0648</MEAN_ANOMALY></meanElements><tleParameters><EPHEMERIS_TYPE>0</EPHEMERIS_TYPE><CLASSIFICATION_TYPE>U</CLASSIFICATION_TYPE><NORAD_CAT_ID>63736</NORAD_CAT_ID><ELEMENT_SET_NO>999</ELEMENT_SET_NO><REV_AT_EPOCH>1469</REV_AT_EPOCH><BSTAR>-.54889E-1</BSTAR><MEAN_MOTION_DOT>-.1061839E-1</MEAN_MOTION_DOT><MEAN_MOTION_DDOT>0</MEAN_MOTION_DDOT></tleParameters></data></segment></body></omm>
<omm id="CCSDS_OMM_VERS" version="2.0">
<header><CREATION_DATE/><ORIGINATOR/></header><body><segment><metadata><OBJECT_NAME>KUIPER-00023</OBJECT_NAME><OBJECT_ID>2025-088P</OBJECT_ID><CENTER_NAME>EARTH</CENTER_NAME><REF_FRAME>TEME</REF_FRAME><TIME_SYSTEM>UTC</TIME_SYSTEM><MEAN_ELEMENT_THEORY>SGP4</MEAN_ELEMENT_THEORY></metadata><data><meanElements><EPOCH>2025-07-31T14:00:01.999872</EPOCH><MEAN_MOTION>15.16117691</MEAN_MOTION><ECCENTRICITY>.0010619</ECCENTRICITY><INCLINATION>51.8802</INCLINATION><RA_OF_ASC_NODE>8.4932</RA_OF_ASC_NODE><ARG_OF_PERICENTER>79.4147</ARG_OF_PERICENTER><MEAN_ANOMALY>205.7969</MEAN_ANOMALY></meanElements><tleParameters><EPHEMERIS_TYPE>0</EPHEMERIS_TYPE><CLASSIFICATION_TYPE>U</CLASSIFICATION_TYPE><NORAD_CAT_ID>63737</NORAD_CAT_ID><ELEMENT_SET_NO>999</ELEMENT_SET_NO><REV_AT_EPOCH>413</REV_AT_EPOCH><BSTAR>-.19432E-2</BSTAR><MEAN_MOTION_DOT>-.381E-3</MEAN_MOTION_DOT><MEAN_MOTION_DDOT>0</MEAN_MOTION_DDOT></tleParameters></data></segment></body></omm>
<omm id="CCSDS_OMM_VERS" version="2.0">
<header><CREATION_DATE/><ORIGINATOR/></header><body><segment><metadata><OBJECT_NAME>KUIPER-00024</OBJECT_NAME><OBJECT_ID>2025-088Q</OBJECT_ID><CENTER_NAME>EARTH</CENTER_NAME><REF_FRAME>TEME</REF_FRAME><TIME_SYSTEM>UTC</TIME_SYSTEM><MEAN_ELEMENT_THEORY>SGP4</MEAN_ELEMENT_THEORY></metadata><data><meanElements><EPOCH>2025-07-31T14:48:02.343456</EPOCH><MEAN_MOTION>15.38606134</MEAN_MOTION><ECCENTRICITY>.0001145</ECCENTRICITY><INCLINATION>51.8733</INCLINATION><RA_OF_ASC_NODE>4.8441</RA_OF_ASC_NODE><ARG_OF_PERICENTER>106.6307</ARG_OF_PERICENTER><MEAN_ANOMALY>253.4806</MEAN_ANOMALY></meanElements><tleParameters><EPHEMERIS_TYPE>0</EPHEMERIS_TYPE><CLASSIFICATION_TYPE>U</CLASSIFICATION_TYPE><NORAD_CAT_ID>63738</NORAD_CAT_ID><ELEMENT_SET_NO>999</ELEMENT_SET_NO><REV_AT_EPOCH>1512</REV_AT_EPOCH><BSTAR>.52567E-3</BSTAR><MEAN_MOTION_DOT>.20016E-3</MEAN_MOTION_DOT><MEAN_MOTION_DDOT>0</MEAN_MOTION_DDOT></tleParameters></data></segment></body></omm>
<omm id="CCSDS_OMM_VERS" version="2.0">
<header><CREATION_DATE/><ORIGINATOR/></header><body><segment><metadata><OBJECT_NAME>KUIPER-00025</OBJECT_NAME><OBJECT_ID>2025-088R</OBJECT_ID><CENTER_NAME>EARTH</CENTER_NAME><REF_FRAME>TEME</REF_FRAME><TIME_SYSTEM>UTC</TIME_SYSTEM><MEAN_ELEMENT_THEORY>SGP4</MEAN_ELEMENT_THEORY></metadata><data><meanElements><EPOCH>2025-07-31T22:00:01.999584</EPOCH><MEAN_MOTION>15.24447716</MEAN_MOTION><ECCENTRICITY>.0008558</ECCENTRICITY><INCLINATION>51.8762</INCLINATION><RA_OF_ASC_NODE>4.9017</RA_OF_ASC_NODE><ARG_OF_PERICENTER>58.6656</ARG_OF_PERICENTER><MEAN_ANOMALY>112.8108</MEAN_ANOMALY></meanElements><tleParameters><EPHEMERIS_TYPE>0</EPHEMERIS_TYPE><CLASSIFICATION_TYPE>U</CLASSIFICATION_TYPE><NORAD_CAT_ID>63739</NORAD_CAT_ID><ELEMENT_SET_NO>999</ELEMENT_SET_NO><REV_AT_EPOCH>1500</REV_AT_EPOCH><BSTAR>-.57078E-1</BSTAR><MEAN_MOTION_DOT>-.1299747E-1</MEAN_MOTION_DOT><MEAN_MOTION_DDOT>0</MEAN_MOTION_DDOT></tleParameters></data></segment></body></omm>

</ndm>
